CCSDS_OEM_VERS = 2.0
CREATION_DATE = 2024-10-02T19:00:59.018000000
ORIGINATOR = NONE

META_START
OBJECT_NAME = _SCPACE_OEM
OBJECT_ID = 1
CENTER_NAME = EARTH
REF_FRAME = EME2000
TIME_SYSTEM = UTC
START_TIME = 2024-10-01T08:00:00.000000000
STOP_TIME = 2024-10-02T16:00:00.000000000
INTERPOLATION = LAGRANGE
INTERPOLATION_DEGREE = 8
META_STOP

2024-10-02T15:21:00.000000000 -3.832421155145663e+03 -2.729593521654010e+03 -5.263113622939865e+03 -5.370120659358766e+00 -1.890219154088296e+00  4.894658155809032e+00
2024-10-02T15:22:00.000000000 -4.146614903543432e+03 -2.837377878167938e+03 -4.958899524366532e+03 -5.099415312435435e+00 -1.701354848292273e+00  5.242374299812019e+00
2024-10-02T15:23:00.000000000 -4.443933877295383e+03 -2.933615902984977e+03 -4.634452242001745e+03 -4.807818651080657e+00 -1.505471774638232e+00  5.568868108228659e+00
2024-10-02T15:24:00.000000000 -4.723158922794263e+03 -3.017909969964875e+03 -4.291086402909662e+03 -4.496495531138677e+00 -1.303358816173709e+00  5.872787642563534e+00
2024-10-02T15:25:00.000000000 -4.983143770767727e+03 -3.089910707153674e+03 -3.930194442461081e+03 -4.166693611800683e+00 -1.095832249752081e+00  6.152869199256882e+00
2024-10-02T15:26:00.000000000 -5.222819136957210e+03 -3.149318429507904e+03 -3.553242227177644e+03 -3.819740235668343e+00 -8.837334919735403e-01  6.407942184469245e+00
2024-10-02T15:27:00.000000000 -5.441197607215821e+03 -3.195884573325768e+03 -3.161763129609609e+03 -3.457037636897893e+00 -6.679255563511894e-01  6.636935759832125e+00
2024-10-02T15:28:00.000000000 -5.637377976110703e+03 -3.229412949260940e+03 -2.757351347183202e+03 -3.080056457003038e+00 -4.492889286297544e-01  6.838884682913696e+00
2024-10-02T15:29:00.000000000 -5.810549305994059e+03 -3.249760612399707e+03 -2.341655652667399e+03 -2.690329808839252e+00 -2.287180826575430e-01  7.012933077093554e+00
2024-10-02T15:30:00.000000000 -5.959994328110980e+03 -3.256838606126943e+03 -1.916372862032737e+03 -2.289447882676636e+00 -7.118057682140540e-03  7.158338833506723e+00
2024-10-02T15:31:00.000000000 -6.085092717884879e+03 -3.250612482449007e+03 -1.483240801975076e+03 -1.879051272948477e+00  2.145996107387923e-01  7.274478090791960e+00
2024-10-02T15:32:00.000000000 -6.185323849511778e+03 -3.231102628389290e+03 -1.044031295953908e+03 -1.460823920757122e+00  4.355208976728683e-01  7.360848397030197e+00
2024-10-02T15:33:00.000000000 -6.260269343357463e+03 -3.198384173519094e+03 -6.005421701833608e+02 -1.036485708765352e+00  6.547334882523752e-01  7.417071473696986e+00
2024-10-02T15:34:00.000000000 -6.309614885341139e+03 -3.152586911061023e+03 -1.545906691061358e+02 -6.077858439549522e-01  8.713305320508323e-01  7.442895591162257e+00
2024-10-02T15:35:00.000000000 -6.333151800468461e+03 -3.093894760911266e+03  2.919948211888162e+02 -1.764942178462695e-01  1.084415264992464e+00  7.438197503107785e+00
2024-10-02T15:36:00.000000000 -6.330778041253099e+03 -3.022545046516287e+03  7.373824314754655e+02  2.556066082446133e-01  1.293105106077551e+00  7.402983166364381e+00
2024-10-02T15:37:00.000000000 -6.302498575438088e+03 -2.938827374220429e+03  1.179745014126788e+03  6.867299118869125e-01  1.496535807427017e+00  7.337387988042296e+00
2024-10-02T15:38:00.000000000 -6.248425599548385e+03 -2.843082711400081e+03  1.617266884503133e+03  1.115092262968376e+00  1.693864804610592e+00  7.241676111021099e+00
2024-10-02T15:39:00.000000000 -6.168777990397573e+03 -2.735701812916693e+03  2.048152119620479e+03  1.538922132827405e+00  1.884275150325587e+00  7.116238868277173e+00
2024-10-02T15:40:00.000000000 -6.063880387305327e+03 -2.617123601020411e+03  2.470632009402385e+03  1.956467416416668e+00  2.066979004162424e+00  6.961592802582960e+00
2024-10-02T15:41:00.000000000 -5.934161817368760e+03 -2.487833335261692e+03  2.882972491932741e+03  2.366003000853882e+00  2.241221039453802e+00  6.778377360925392e+00
2024-10-02T15:42:00.000000000 -5.780153746850566e+03 -2.348360479664423e+03  3.283481646224858e+03  2.765838380092028e+00  2.406281842863767e+00  6.567351861292846e+00
2024-10-02T15:43:00.000000000 -5.602487877643151e+03 -2.199276508510561e+03  3.670516567684499e+03  3.154324620282206e+00  2.561481160731926e+00  6.329392085946772e+00
2024-10-02T15:44:00.000000000 -5.401893370323028e+03 -2.041192435243026e+03  4.042490363114957e+03  3.529861869462203e+00  2.706181116096866e+00  6.065486242947776e+00
2024-10-02T15:45:00.000000000 -5.179193844133916e+03 -1.874756298661738e+03  4.397878519136751e+03  3.890906654777073e+00  2.839788734856359e+00  5.776730147967835e+00
2024-10-02T15:46:00.000000000 -4.935303897383434e+03 -1.700650440472894e+03  4.735225200388624e+03  4.235978366843169e+00  2.961757934659708e+00  5.464321422760790e+00
2024-10-02T15:47:00.000000000 -4.671224471431658e+03 -1.519588233949292e+03  5.053149716817812e+03  4.563665183041501e+00  3.071591533974293e+00  5.129553350998798e+00
2024-10-02T15:48:00.000000000 -4.388038892456055e+03 -1.332311289426110e+03  5.350351864001385e+03  4.872628756190428e+00  3.168842912601871e+00  4.773809911382275e+00
2024-10-02T15:49:00.000000000 -4.086908800934926e+03 -1.139586665624492e+03  5.625616738470061e+03  5.161609850511797e+00  3.253118026321427e+00  4.398560504666868e+00
2024-10-02T15:50:00.000000000 -3.769068903650180e+03 -9.422034613942882e+02  5.877819941697065e+03  5.429434205896816e+00  3.324077205068094e+00  4.005352146543883e+00
2024-10-02T15:51:00.000000000 -3.435821578027334e+03 -7.409694192641423e+02  6.105932149414216e+03  5.675016210420889e+00  3.381435843363780e+00  3.595801815247045e+00
2024-10-02T15:52:00.000000000 -3.088531644093007e+03 -5.367077181259419e+02  6.309022968859127e+03  5.897362001499828e+00  3.424964986936156e+00  3.171590559255026e+00
2024-10-02T15:53:00.000000000 -2.728620663179875e+03 -3.302535594427035e+02  6.486264638247165e+03  6.095573564871972e+00  3.454492377530436e+00  2.734456816154361e+00
2024-10-02T15:54:00.000000000 -2.357561122619016e+03 -1.224507677772171e+02  6.636935223886397e+03  6.268852025838077e+00  3.469902941813717e+00  2.286188599220128e+00
2024-10-02T15:55:00.000000000 -1.976870405114016e+03  8.585164526625751e+01  6.760421382918051e+03  6.416499790505076e+00  3.471138581817439e+00  1.828616237825105e+00
2024-10-02T15:56:00.000000000 -1.588105052413074e+03  2.938026712135475e+02  6.856220610952450e+03  6.537922826629165e+00  3.458198092923896e+00  1.363606245006014e+00
2024-10-02T15:57:00.000000000 -1.192853644653111e+03  5.005531587915008e+02  6.923943353683588e+03  6.632633402167532e+00  3.431137091808237e+00  8.930530516395792e-01
2024-10-02T15:58:00.000000000 -7.927307505570365e+02  7.052590265184875e+02  6.963314427805549e+03  6.700251223850394e+00  3.390067493500904e+00  4.188717552134736e-01
2024-10-02T15:59:00.000000000 -3.893706263400602e+02  9.070845198259124e+02  6.974173972958005e+03  6.740504490907893e+00  3.335157097253507e+00 -5.700866620415521e-02
